{
    "links": {
        "self": "http://www.neowsapp.com/rest/v1/neo/3653216?api_key=iIulBulltgU6a56xZRHN4H3l9WmuAYTsLGpBGhQ2"
    },
    "id": "3653216",
    "neo_reference_id": "3653216",
    "name": "(2013 UU4)",
    "designation": "2013 UU4",
    "nasa_jpl_url": "http://ssd.jpl.nasa.gov/sbdb.cgi?sstr=3653216",
    "absolute_magnitude_h": 24.0,
    "estimated_diameter": {
        "kilometers": {
            "estimated_diameter_min": 0.0421264611,
            "estimated_diameter_max": 0.0941976306
        },
        "meters": {
            "estimated_diameter_min": 42.1264610556,
            "estimated_diameter_max": 94.1976305719
        },
        "miles": {
            "estimated_diameter_min": 0.0261761612,
            "estimated_diameter_max": 0.0585316759
        },
        "feet": {
            "estimated_diameter_min": 138.2101784897,
            "estimated_diameter_max": 309.0473542854
        }
    },
    "is_potentially_hazardous_asteroid": false,
    "close_approach_data": [
        {
            "close_approach_date": "2013-10-25",
            "close_approach_date_full": "2013-Oct-25 23:43",
            "epoch_date_close_approach": 1382744580000,
            "relative_velocity": {
                "kilometers_per_second": "20.4528682243",
                "kilometers_per_hour": "73630.3256075311",
                "miles_per_hour": "45751.0209309684"
            },
            "miss_distance": {
                "astronomical": "0.0923104395",
                "lunar": "35.9087609655",
                "kilometers": "13809445.127963865",
                "miles": "8580791.305936737"
            },
            "orbiting_body": "Earth"
        }
    ],
    "orbital_data": {
        "orbit_id": "7",
        "orbit_determination_date": "2017-04-06 08:44:00",
        "first_observation_date": "2013-10-25",
        "last_observation_date": "2013-10-28",
        "data_arc_in_days": 3,
        "observations_used": 46,
        "orbit_uncertainty": "9",
        "minimum_orbit_intersection": ".0846247",
        "jupiter_tisserand_invariant": "4.687",
        "epoch_osculation": "2456591.5",
        "eccentricity": ".1955149714000502",
        "semi_major_axis": "1.328804760689527",
        "inclination": "38.94233626794078",
        "ascending_node_longitude": "34.14935394496641",
        "orbital_period": "559.4872448333201",
        "perihelion_distance": "1.069003535907064",
        "perihelion_argument": "340.7766646472975",
        "aphelion_distance": "1.588605985471991",
        "perihelion_time": "2456571.199230729197",
        "mean_anomaly": "13.06245496207215",
        "mean_motion": ".6434463043161056",
        "equinox": "J2000",
        "orbit_class": {
            "orbit_class_type": "AMO",
            "orbit_class_description": "Near-Earth asteroid orbits similar to that of 1221 Amor",
            "orbit_class_range": "1.017 AU < q (perihelion) < 1.3 AU"
        }
    },
    "is_sentry_object": false
}